[
    { "_id": "TR", "name": "Türkiye", "preferredLangs": ["tr"], "level0": "R03", "dialCode": "+90" },
    { "_id": "US", "name": "USA", "preferredLangs": ["en"], "level0": "R05", "dialCode": "+1" },
    { "_id": "GB", "name": "United Kingdom", "preferredLangs": ["en"], "level0": "R03", "dialCode": "+44" },
    { "_id": "ES", "name": "España", "preferredLangs": ["es"], "level0": "R03", "dialCode": "+34" },
    { "_id": "FR", "name": "France", "preferredLangs": ["fr"], "level0": "R03", "dialCode": "+33" },
    { "_id": "DE", "name": "Deutschland", "preferredLangs": ["de"], "level0": "R03", "dialCode": "+49" },
    { "_id": "JP", "name": "日本", "preferredLangs": ["ja"], "level0": "R02", "dialCode": "+81" },
    { "_id": "IN", "name": "India", "preferredLangs": ["en"], "level0": "R01", "dialCode": "+91" },
    { "_id": "MX", "name": "México", "preferredLangs": ["es"], "level0": "R04", "dialCode": "+52" },
    { "_id": "CA", "name": "Canada", "preferredLangs": ["en", "fr"], "level0": "R05", "dialCode": "+1" }
]